{
  "type": "FeatureCollection",
  "features": [
    {
      "type": "Feature",
      "properties": {
        "norad_id": 54048,
        "name": "EUTELSAT HOTBIRD 13F",
        "group": "eutelsat",
        "lat": NaN,
        "lon": NaN,
        "alt_km": NaN,
        "timestamp": "2025-12-01T03:08:33.672329+00:00",
        "meta": {
          "OBJECT_NAME": "EUTELSAT HOTBIRD 13F",
          "OBJECT_ID": "2022-134A",
          "EPOCH": "2025-11-30T19:02:33.132192",
          "MEAN_MOTION": 1.00271276,
          "ECCENTRICITY": 0.0001976,
          "INCLINATION": 0.0534,
          "RA_OF_ASC_NODE": 288.5588,
          "ARG_OF_PERICENTER": 69.2317,
          "MEAN_ANOMALY": 10.7745,
          "EPHEMERIS_TYPE": 0,
          "CLASSIFICATION_TYPE": "U",
          "NORAD_CAT_ID": 54048,
          "ELEMENT_SET_NO": 999,
          "REV_AT_EPOCH": 1138,
          "BSTAR": 0,
          "MEAN_MOTION_DOT": 1.09e-06,
          "MEAN_MOTION_DDOT": 0
        }
      },
      "geometry": {
        "type": "Point",
        "coordinates": [
          NaN,
          NaN
        ]
      }
    },
    {
      "type": "Feature",
      "properties": {
        "norad_id": 54225,
        "name": "EUTELSAT HOTBIRD 13G",
        "group": "eutelsat",
        "lat": NaN,
        "lon": NaN,
        "alt_km": NaN,
        "timestamp": "2025-12-01T03:08:33.672773+00:00",
        "meta": {
          "OBJECT_NAME": "EUTELSAT HOTBIRD 13G",
          "OBJECT_ID": "2022-146A",
          "EPOCH": "2025-11-30T19:02:33.132192",
          "MEAN_MOTION": 1.00271322,
          "ECCENTRICITY": 0.000204,
          "INCLINATION": 0.0465,
          "RA_OF_ASC_NODE": 238.7534,
          "ARG_OF_PERICENTER": 303.9027,
          "MEAN_ANOMALY": 185.9034,
          "EPHEMERIS_TYPE": 0,
          "CLASSIFICATION_TYPE": "U",
          "NORAD_CAT_ID": 54225,
          "ELEMENT_SET_NO": 999,
          "REV_AT_EPOCH": 547,
          "BSTAR": 0,
          "MEAN_MOTION_DOT": 1.09e-06,
          "MEAN_MOTION_DDOT": 0
        }
      },
      "geometry": {
        "type": "Point",
        "coordinates": [
          NaN,
          NaN
        ]
      }
    },
    {
      "type": "Feature",
      "properties": {
        "norad_id": 54259,
        "name": "EUTELSAT 10B",
        "group": "eutelsat",
        "lat": NaN,
        "lon": NaN,
        "alt_km": NaN,
        "timestamp": "2025-12-01T03:08:33.673213+00:00",
        "meta": {
          "OBJECT_NAME": "EUTELSAT 10B",
          "OBJECT_ID": "2022-157A",
          "EPOCH": "2025-11-30T17:18:54.105984",
          "MEAN_MOTION": 1.00268678,
          "ECCENTRICITY": 0.0001052,
          "INCLINATION": 0.0575,
          "RA_OF_ASC_NODE": 104.133,
          "ARG_OF_PERICENTER": 64.7704,
          "MEAN_ANOMALY": 170.7063,
          "EPHEMERIS_TYPE": 0,
          "CLASSIFICATION_TYPE": "U",
          "NORAD_CAT_ID": 54259,
          "ELEMENT_SET_NO": 999,
          "REV_AT_EPOCH": 1103,
          "BSTAR": 0,
          "MEAN_MOTION_DOT": 9e-07,
          "MEAN_MOTION_DDOT": 0
        }
      },
      "geometry": {
        "type": "Point",
        "coordinates": [
          NaN,
          NaN
        ]
      }
    },
    {
      "type": "Feature",
      "properties": {
        "norad_id": 59346,
        "name": "EUTELSAT 36D",
        "group": "eutelsat",
        "lat": NaN,
        "lon": NaN,
        "alt_km": NaN,
        "timestamp": "2025-12-01T03:08:33.673926+00:00",
        "meta": {
          "OBJECT_NAME": "EUTELSAT 36D",
          "OBJECT_ID": "2024-059A",
          "EPOCH": "2025-11-30T19:09:02.510208",
          "MEAN_MOTION": 1.0026784,
          "ECCENTRICITY": 8.03e-05,
          "INCLINATION": 0.0168,
          "RA_OF_ASC_NODE": 320.9663,
          "ARG_OF_PERICENTER": 5.9848,
          "MEAN_ANOMALY": 66.1247,
          "EPHEMERIS_TYPE": 0,
          "CLASSIFICATION_TYPE": "U",
          "NORAD_CAT_ID": 59346,
          "ELEMENT_SET_NO": 999,
          "REV_AT_EPOCH": 615,
          "BSTAR": 0,
          "MEAN_MOTION_DOT": 1.77e-06,
          "MEAN_MOTION_DDOT": 0
        }
      },
      "geometry": {
        "type": "Point",
        "coordinates": [
          NaN,
          NaN
        ]
      }
    }
  ]
}